name,email,phone,linkedin,instagram,twitter,profession,city,state,domain,source_url
Engineers India Limited,eilmbd@eil.co.in,+91-11-267621,https://www.linkedin.com/company/engineers-india-limited,https://www.instagram.com/engineers_india_limited,https://twitter.com/EngineersIND,Engineer,jaipur,Rajasthan,engineersindia.com,https://engineersindia.com/contact-us
Meghdhanush Complex,rajiv.ranjan@ceil.co.in,+91-11-267625,Not found,Not found,Not found,Engineer,jaipur,Rajasthan,engineersindia.com,https://engineersindia.com/contact-us
Great West Road,Not found,691396936994,Not found,Not found,Not found,Engineer,jaipur,Rajasthan,engineersindia.com,https://engineersindia.com/contact-us
Phase Expansion,Not found,+91-33-222776,Not found,Not found,Not found,Engineer,jaipur,Rajasthan,engineersindia.com,https://engineersindia.com/contact-us
Visakh Refinery Modernisation Project,Not found,971-26740101,Not found,Not found,Not found,Engineer,jaipur,Rajasthan,engineersindia.com,https://engineersindia.com/contact-us
And Stainless Steel Wires,Not found,+91-8047305467,https://www.linkedin.com/company/indiamart-intermesh-limited,Not found,https://twitter.com/IndiaMART,Engineer,jaipur,Rajasthan,dir.indiamart.com,https://dir.indiamart.com/jaipur/civil-engineering-service.html
Civil Engineering,Not found,+91-8048964464,Not found,Not found,Not found,Engineer,jaipur,Rajasthan,dir.indiamart.com,https://dir.indiamart.com/jaipur/civil-engineering-service.html
Rajeshwari Enterprises,Not found,+916460734653,Not found,Not found,Not found,Engineer,jaipur,Rajasthan,dir.indiamart.com,https://dir.indiamart.com/jaipur/civil-engineering-service.html
Filter Results,Not found,676973435360,Not found,Not found,Not found,Engineer,jaipur,Rajasthan,dir.indiamart.com,https://dir.indiamart.com/jaipur/civil-engineering-service.html
Jawahar Nagar,Not found,+916709039691,Not found,Not found,Not found,Engineer,jaipur,Rajasthan,dir.indiamart.com,https://dir.indiamart.com/jaipur/civil-engineering-service.html
Creative Designing,Not found,+91-8047824562,https://www.linkedin.com/company/indiamart-intermesh-limited,Not found,https://twitter.com/IndiaMART,Engineer,jaipur,Rajasthan,dir.indiamart.com,https://dir.indiamart.com/jaipur/engineering-solution.html
Trial Available,Not found,+918540884607,Not found,Not found,Not found,Engineer,jaipur,Rajasthan,dir.indiamart.com,https://dir.indiamart.com/jaipur/engineering-solution.html
Cold Forming Process Design,Not found,854088460788,Not found,Not found,Not found,Engineer,jaipur,Rajasthan,dir.indiamart.com,https://dir.indiamart.com/jaipur/engineering-solution.html
Scheme No,Not found,+916237149091,Not found,Not found,Not found,Engineer,jaipur,Rajasthan,dir.indiamart.com,https://dir.indiamart.com/jaipur/engineering-solution.html
New Sanganer Road,Not found,723625889870,Not found,Not found,Not found,Engineer,jaipur,Rajasthan,dir.indiamart.com,https://dir.indiamart.com/jaipur/engineering-solution.html
Special Purpose Transformers,aditya@tradeindia.com,8-4445535400,Not found,Not found,Not found,Engineer,jaipur,Rajasthan,www.continentalengineersalfa.in,https://www.continentalengineersalfa.in/contact-us.html
Resin Cast Indoor Type,Not found,62368634-39,Not found,Not found,Not found,Engineer,jaipur,Rajasthan,www.continentalengineersalfa.in,https://www.continentalengineersalfa.in/contact-us.html
Create Inquiry,Not found,+918045815087,Not found,Not found,Not found,Engineer,jaipur,Rajasthan,www.continentalengineersalfa.in,https://www.continentalengineersalfa.in/contact-us.html
Low Tension Current Transformers,Not found,Not found,Not found,Not found,Not found,Engineer,jaipur,Rajasthan,www.continentalengineersalfa.in,https://www.continentalengineersalfa.in/contact-us.html
Exp Object,Not found,Not found,Not found,Not found,Not found,Engineer,jaipur,Rajasthan,www.continentalengineersalfa.in,https://www.continentalengineersalfa.in/contact-us.html
